NORAD_CAT_ID,OBJECT_NAME,OBJECT_TYPE,EPOCH,MEAN_MOTION,ECCENTRICITY,INCLINATION,RA_OF_ASC_NODE,ARG_OF_PERICENTER,MEAN_ANOMALY,BSTAR,MEAN_MOTION_DOT,MEAN_MOTION_DDOT,TLE_LINE0,TLE_LINE1,TLE_LINE2,SEMIMAJOR_AXIS,PERIOD,APOGEE,PERIGEE,DECAYED
49727.0,STARLINK-3242,PAYLOAD,2022-06-07 09:27:49,15.08834634,0.0002701,53.2169,195.1153,34.6076,325.5092,5.8372000000000015e-06,-1.96e-06,0.0,0 STARLINK-3242,1 49727U 21115D   22158.39432012 -.00000196  00000-0  58372-5 0  9998,2 49727  53.2169 195.1153 0002701  34.6076 325.5092 15.08834634 28376,6917.897,95.438,541.63,537.893,0.0
49727.0,STARLINK-3242,PAYLOAD,2022-06-07 19:00:08,15.08837332,0.0002732,53.217,193.331,34.7863,325.3307,-3.3037e-06,-3.41e-06,0.0,0 STARLINK-3242,1 49727U 21115D   22158.79175989 -.00000341  00000-0 -33037-5 0  9993,2 49727  53.2170 193.3310 0002732  34.7863 325.3307 15.08837332 28434,6917.889,95.438,541.644,537.864,0.0
49727.0,STARLINK-3242,PAYLOAD,2022-06-08 09:18:36,15.08834634,0.0002745,53.2169,190.6549,35.6389,324.4786,0.00010398,1.367e-05,0.0,0 STARLINK-3242,1 49727U 21115D   22159.38791990  .00001367  00000-0  10398-3 0  9995,2 49727  53.2169 190.6549 0002745  35.6389 324.4786 15.08834634 29639,6917.897,95.438,541.661,537.863,0.0
49727.0,STARLINK-3242,PAYLOAD,2022-06-08 18:50:55,15.08837057,0.0002772,53.217,188.8707,36.3842,323.7338,0.00010467,1.378e-05,0.0,0 STARLINK-3242,1 49727U 21115D   22159.78535989  .00001378  00000-0  10467-3 0  9992,2 49727  53.2170 188.8707 0002772  36.3842 323.7338 15.08837057 28588,6917.889,95.438,541.672,537.837,0.0
49727.0,STARLINK-3242,PAYLOAD,2022-06-09 10:44:46,15.08842122,0.0002798,53.2167,185.8968,37.2721,322.8465,0.00010508,1.384e-05,0.0,0 STARLINK-3242,1 49727U 21115D   22160.44775781  .00001384  00000-0  10508-3 0  9996,2 49727  53.2167 185.8968 0002798  37.2721 322.8465 15.08842122 28685,6917.874,95.437,541.675,537.803,0.0
49727.0,STARLINK-3242,PAYLOAD,2022-06-10 10:35:32,15.08848588,0.0002843,53.2169,181.4363,38.7421,321.3774,0.00010544,1.39e-05,0.0,0 STARLINK-3242,1 49727U 21115D   22161.44135195  .00001390  00000-0  10544-3 0  9993,2 49727  53.2169 181.4363 0002843  38.7421 321.3774 15.08848588 28838,6917.854,95.437,541.686,537.752,0.0
49727.0,STARLINK-3242,PAYLOAD,2022-06-10 18:32:28,15.08847777,0.0002911,53.2165,179.9492,38.175,321.9448,7.9364e-05,9.75e-06,0.0,0 STARLINK-3242,1 49727U 21115D   22161.77255183  .00000975  00000-0  79364-4 0  9993,2 49727  53.2165 179.9492 0002911  38.1750 321.9448 15.08847777 29995,6917.857,95.437,541.735,537.7080000000002,0.0
49727.0,STARLINK-3242,PAYLOAD,2022-06-11 07:15:34,15.08837214,0.0002906,53.2169,177.5707,41.1308,318.9903,-2.497e-05,-6.86e-06,0.0,0 STARLINK-3242,1 49727U 21115D   22162.30248118 -.00000686  00000-0 -24970-4 0  9997,2 49727  53.2169 177.5707 0002906  41.1308 318.9903 15.08837214 30077,6917.889,95.438,541.764,537.744,0.0
49727.0,STARLINK-3242,PAYLOAD,2022-06-11 18:23:16,15.08836967,0.0002946,53.2171,175.4892,42.0381,318.0837,-3.284e-05,-8.11e-06,0.0,0 STARLINK-3242,1 49727U 21115D   22162.76616210 -.00000811  00000-0 -32840-4 0  9994,2 49727  53.2171 175.4892 0002946  42.0381 318.0837 15.08836967 29032,6917.89,95.438,541.793,537.717,0.0
49727.0,STARLINK-3242,PAYLOAD,2022-06-12 07:06:21,15.08839937,0.0002935,53.2169,173.1101,42.5022,317.6197,-2.2152e-05,-6.41e-06,0.0,0 STARLINK-3242,1 49727U 21115D   22163.29607977 -.00000641  00000-0 -22152-4 0  9999,2 49727  53.2169 173.1101 0002935  42.5022 317.6197 15.08839937 29115,6917.880999999999,95.438,541.776,537.715,0.0
49727.0,STARLINK-3242,PAYLOAD,2022-06-12 18:14:03,15.08837417,0.0002907,53.2175,171.0284,44.2498,315.8726,-1.9041e-06,-3.19e-06,0.0,0 STARLINK-3242,1 49727U 21115D   22163.75976144 -.00000319  00000-0 -19041-5 0  9991,2 49727  53.2175 171.0284 0002907  44.2498 315.8726 15.08837417 30296,6917.888000000001,95.438,541.764,537.742,0.0
49727.0,STARLINK-3242,PAYLOAD,2022-06-13 06:57:08,15.08836299,0.0002981,53.2172,168.6505,41.9663,318.1557,0.00010426,1.371e-05,0.0,0 STARLINK-3242,1 49727U 21115D   22164.28968128  .00001371  00000-0  10426-3 0  9996,2 49727  53.2172 168.6505 0002981  41.9663 318.1557 15.08836299 29261,6917.892,95.438,541.819,537.694,0.0
49727.0,STARLINK-3242,PAYLOAD,2022-06-14 05:12:32,15.08843433,0.0003046,53.2171,164.4876,43.752,316.3713,0.00013021,1.785e-05,0.0,0 STARLINK-3242,1 49727U 21115D   22165.21703939  .00001785  00000-0  13021-3 0  9990,2 49727  53.2171 164.4876 0003046  43.7520 316.3713 15.08843433 30512,6917.87,95.437,541.842,537.628,0.0
49727.0,STARLINK-3242,PAYLOAD,2022-06-14 09:58:41,15.0884518,0.0003044,53.2171,163.5952,44.3712,315.7524,0.00013927,1.929e-05,0.0,0 STARLINK-3242,1 49727U 21115D   22165.41575843  .00001929  00000-0  13927-3 0  9998,2 49727  53.2171 163.5952 0003044  44.3712 315.7524 15.08845180 29438,6917.865,95.437,541.835,537.624,0.0
49727.0,STARLINK-3242,PAYLOAD,2022-06-14 16:20:13,15.08847054,0.0003057,53.2171,162.4058,44.7423,315.3815,0.00014396,2.004e-05,0.0,0 STARLINK-3242,1 49727U 21115D   22165.68071627  .00002004  00000-0  14396-3 0  9994,2 49727  53.2171 162.4058 0003057  44.7423 315.3815 15.08847054 29475,6917.859,95.437,541.839,537.609,0.0
49727.0,STARLINK-3242,PAYLOAD,2022-06-15 03:27:56,15.08839971,0.0003093,53.2172,160.3246,47.0274,313.0977,5.0218e-05,5.11e-06,0.0,0 STARLINK-3242,1 49727U 21115D   22166.14440284  .00000511  00000-0  50218-4 0  9990,2 49727  53.2172 160.3246 0003093  47.0274 313.0977 15.08839971 30657,6917.88,95.438,541.885,537.606,0.0
49727.0,STARLINK-3242,PAYLOAD,2022-06-15 08:14:06,15.08836045,0.0003089,53.2172,159.4325,46.5307,313.5941,1.2491e-05,-9.000000000000002e-07,0.0,0 STARLINK-3242,1 49727U 21115D   22166.34312614 -.00000090  00000-0  12491-4 0  9991,2 49727  53.2172 159.4325 0003089  46.5307 313.5941 15.08836045 29574,6917.892,95.438,541.894,537.621,0.0
49727.0,STARLINK-3242,PAYLOAD,2022-06-15 16:11:01,15.08837149,0.0003108,53.2172,157.9458,47.1651,312.9602,8.621000000000001e-06,-1.52e-06,0.0,0 STARLINK-3242,1 49727U 21115D   22166.67432610 -.00000152  00000-0  86210-5 0  9996,2 49727  53.2172 157.9458 0003108  47.1651 312.9602 15.08837149 29624,6917.889,95.438,541.904,537.604,0.0
49727.0,STARLINK-3242,PAYLOAD,2022-06-16 00:07:57,15.08842808,0.0003067,53.2171,156.4589,47.1182,313.0067,1.4715e-05,-5.4e-07,0.0,0 STARLINK-3242,1 49727U 21115D   22167.00552287 -.00000054  00000-0  14715-4 0  9998,2 49727  53.2171 156.4589 0003067  47.1182 313.0067 15.08842808 29675,6917.871999999999,95.437,541.859,537.615,0.0
49727.0,STARLINK-3242,PAYLOAD,2022-06-19 07:37:13,15.08843612,0.0003166,53.2166,141.5902,51.0783,309.0491,0.00015853,2.236e-05,0.0,0 STARLINK-3242,1 49727U 21115D   22170.31751907  .00002236  00000-0  15853-3 0  9992,2 49727  53.2166 141.5902 0003166  51.0783 309.0491 15.08843612 30171,6917.869000000002,95.437,541.925,537.544,0.0
49727.0,STARLINK-3242,PAYLOAD,2022-06-20 04:17:14,15.08840019,0.0003253999999999,53.2164,137.7243,53.9132,306.2161,8.1604e-05,1.01e-05,0.0,0 STARLINK-3242,1 49727U 21115D   22171.17864386  .00001010  00000-0  81604-4 0  9990,2 49727  53.2164 137.7243 0003254  53.9132 306.2161 15.08840019 31410,6917.88,95.438,541.996,537.494,0.0
49727.0,STARLINK-3242,PAYLOAD,2022-06-20 07:28:01,15.08840215,0.000321,53.2169,137.1297,53.64100000000001,306.4878,6.188600000000001e-05,6.96e-06,0.0,0 STARLINK-3242,1 49727U 21115D   22171.31112413  .00000696  00000-0  61886-4 0  9992,2 49727  53.2169 137.1297 0003210  53.6410 306.4878 15.08840215 30320,6917.88,95.438,541.965,537.524,0.0
49727.0,STARLINK-3242,PAYLOAD,2022-06-21 07:18:48,15.0884063,0.0003191,53.2175,132.6693,55.191,304.9382,-2.1246e-05,-6.27e-06,0.0,0 STARLINK-3242,1 49727U 21115D   22172.30472428 -.00000627  00000-0 -21246-4 0  9999,2 49727  53.2175 132.6693 0003191  55.1910 304.9382 15.08840630 31580,6917.878000000002,95.438,541.951,537.536,0.0
49727.0,STARLINK-3242,PAYLOAD,2022-06-21 21:37:17,15.08829569,0.0003225,53.2181,129.993,56.0775,304.0523,-2.7814e-05,-7.31e-06,0.0,0 STARLINK-3242,1 49727U 21115D   22172.90089316 -.00000731  00000-0 -27814-4 0  9998,2 49727  53.2181 129.9930 0003225  56.0775 304.0523 15.08829569 30560,6917.9119999999975,95.438,542.008,537.5459999999998,0.0
49727.0,STARLINK-3242,PAYLOAD,2022-06-22 03:58:49,15.08829382,0.0003196,53.2171,128.8039,55.4848,304.6445,-2.2071e-05,-6.4e-06,0.0,0 STARLINK-3242,1 49727U 21115D   22173.16585464 -.00000640  00000-0 -22071-4 0  9991,2 49727  53.2171 128.8039 0003196  55.4848 304.6445 15.08829382 31718,6917.913000000001,95.438,541.989,537.567,0.0
49727.0,STARLINK-3242,PAYLOAD,2022-06-22 13:31:08,15.08833633,0.0003196,53.2174,127.0202,55.3906,304.7387,-1.5691e-05,-5.38e-06,0.0,0 STARLINK-3242,1 49727U 21115D   22173.56329375 -.00000538  00000-0 -15691-4 0  9998,2 49727  53.2174 127.0202 0003196  55.3906 304.7387 15.08833633 30661,6917.9,95.438,541.976,537.554,0.0
49727.0,STARLINK-3242,PAYLOAD,2022-06-23 03:49:36,15.08847,0.0003006,53.2178,124.3438,54.015,306.112,-3.4715e-05,-8.41e-06,0.0,0 STARLINK-3242,1 49727U 21115D   22174.15944862 -.00000841  00000-0 -34715-4 0  9993,2 49727  53.2178 124.3438 0003006  54.0150 306.1120 15.08847000 31860,6917.859,95.437,541.804,537.644,0.0
49727.0,STARLINK-3242,PAYLOAD,2022-06-23 07:00:22,15.08843399,0.0003127,53.2178,123.7491,56.2269,303.9021,4.6207e-05,4.47e-06,0.0,0 STARLINK-3242,1 49727U 21115D   22174.29192787  .00000447  00000-0  46207-4 0  9998,2 49727  53.2178 123.7491 0003127  56.2269 303.9021 15.08843399 30772,6917.87,95.437,541.898,537.572,0.0
49727.0,STARLINK-3242,PAYLOAD,2022-06-24 03:40:23,15.08835665,0.0003086,53.218,119.8834,55.9197,304.2088,0.0001132,1.513e-05,0.0,0 STARLINK-3242,1 49727U 21115D   22175.15305286  .00001513  00000-0  11320-3 0  9996,2 49727  53.2180 119.8834 0003086  55.9197 304.2088 15.08835665 32015,6917.894,95.438,541.894,537.624,0.0
